[{"OBJECT_NAME":"TIANMU-1 20","OBJECT_ID":"2023-208B","EPOCH":"2026-03-09T21:50:45.859200","MEAN_MOTION":15.31029249,"ECCENTRICITY":0.00061925,"INCLINATION":97.4323,"RA_OF_ASC_NODE":185.4313,"ARG_OF_PERICENTER":324.1763,"MEAN_ANOMALY":35.9062,"EPHEMERIS_TYPE":0,"CLASSIFICATION_TYPE":"U","NORAD_CAT_ID":58661,"ELEMENT_SET_NO":999,"REV_AT_EPOCH":12222,"BSTAR":0.0003681641,"MEAN_MOTION_DOT":0.00010969,"MEAN_MOTION_DDOT":0},{"OBJECT_NAME":"STARLINK-36497","OBJECT_ID":"2026-002U","EPOCH":"2026-03-09T23:35:45.600288","MEAN_MOTION":15.27603135,"ECCENTRICITY":0.00012994,"INCLINATION":42.9996,"RA_OF_ASC_NODE":323.6163,"ARG_OF_PERICENTER":250.9128,"MEAN_ANOMALY":109.1583,"EPHEMERIS_TYPE":0,"CLASSIFICATION_TYPE":"U","NORAD_CAT_ID":67323,"ELEMENT_SET_NO":999,"REV_AT_EPOCH":1118,"BSTAR":0.0013495818,"MEAN_MOTION_DOT":0.00037089,"MEAN_MOTION_DDOT":0}]
